{"fetched_at":"2026-07-23T17:55:47.677Z","source":"https://celestrak.org/NORAD/elements/gp.php?NAME=RADARSAT&FORMAT=JSON","constellation":"radarsat-2","records":[{"OBJECT_NAME":"RADARSAT-2","OBJECT_ID":"2007-061A","EPOCH":"2026-07-23T06:47:06.848160","CLASSIFICATION_TYPE":"U","MEAN_MOTION":14.29980953,"ECCENTRICITY":0.00013201,"INCLINATION":98.5795,"RA_OF_ASC_NODE":210.7005,"ARG_OF_PERICENTER":86.4441,"MEAN_ANOMALY":273.6892,"EPHEMERIS_TYPE":0,"NORAD_CAT_ID":32382,"ELEMENT_SET_NO":999,"REV_AT_EPOCH":97111,"BSTAR":0.000057178768,"MEAN_MOTION_DOT":0.00000104,"MEAN_MOTION_DDOT":0}]}
